{
  "type": "FeatureCollection",
  "features": [
    {
      "type": "Feature",
      "properties": {
        "norad_id": 39773,
        "name": "EUTELSAT 3B",
        "group": "eutelsat",
        "lat": -0.024338001900907628,
        "lon": -163.8756468993852,
        "alt_km": 35771.65522021366,
        "timestamp": "2025-12-19T06:59:43.575307+00:00",
        "meta_object_name": "EUTELSAT 3B",
        "meta_object_id": "2014-030A",
        "meta_epoch": "2025-12-18T21:13:26.602752",
        "meta_mean_motion": 1.00272279,
        "meta_eccentricity": 0.00041974,
        "meta_inclination": 0.0604,
        "meta_ra_of_asc_node": 3.0827,
        "meta_arg_of_pericenter": 229.2021,
        "meta_mean_anomaly": 176.9063,
        "meta_ephemeris_type": 0,
        "meta_classification_type": "U",
        "meta_norad_cat_id": 39773,
        "meta_element_set_no": 999,
        "meta_rev_at_epoch": 4225,
        "meta_bstar": 0,
        "meta_mean_motion_dot": 4.5e-07,
        "meta_mean_motion_ddot": 0,
        "tle_line1": "1 39773U 14030A   25352.88433568  .00000045  00000+0  00000+0 0  9996",
        "tle_line2": "2 39773   0.0604   3.0827 0004197 229.2021 176.9063  1.00272279 42255"
      },
      "geometry": {
        "type": "Point",
        "coordinates": [
          -163.8756468993852,
          -0.024338001900907628
        ]
      }
    },
    {
      "type": "Feature",
      "properties": {
        "norad_id": 40425,
        "name": "EUTELSAT 115 WEST B",
        "group": "eutelsat",
        "lat": -0.009357948256419153,
        "lon": 78.16765529124176,
        "alt_km": 35787.14359509187,
        "timestamp": "2025-12-19T06:59:43.575318+00:00",
        "meta_object_name": "EUTELSAT 115 WEST B",
        "meta_object_id": "2015-010B",
        "meta_epoch": "2025-12-18T23:01:13.734336",
        "meta_mean_motion": 1.00271755,
        "meta_eccentricity": 4.019e-05,
        "meta_inclination": 0.0161,
        "meta_ra_of_asc_node": 149.2312,
        "meta_arg_of_pericenter": 160.3744,
        "meta_mean_anomaly": 8.6176,
        "meta_ephemeris_type": 0,
        "meta_classification_type": "U",
        "meta_norad_cat_id": 40425,
        "meta_element_set_no": 999,
        "meta_rev_at_epoch": 3958,
        "meta_bstar": 0,
        "meta_mean_motion_dot": 0,
        "meta_mean_motion_ddot": 0,
        "tle_line1": "1 40425U 15010B   25352.95918674  .00000000  00000+0  00000+0 0  9996",
        "tle_line2": "2 40425   0.0161 149.2312 0000401 160.3744   8.6176  1.00271755 39588"
      },
      "geometry": {
        "type": "Point",
        "coordinates": [
          78.16765529124176,
          -0.009357948256419153
        ]
      }
    },
    {
      "type": "Feature",
      "properties": {
        "norad_id": 40875,
        "name": "EUTELSAT 8 WEST B",
        "group": "eutelsat",
        "lat": -0.018127069440724355,
        "lon": -174.9803603512759,
        "alt_km": 35784.803344635526,
        "timestamp": "2025-12-19T06:59:43.575330+00:00",
        "meta_object_name": "EUTELSAT 8 WEST B",
        "meta_object_id": "2015-039B",
        "meta_epoch": "2025-12-18T21:13:38.602848",
        "meta_mean_motion": 1.00270031,
        "meta_eccentricity": 0.00042991,
        "meta_inclination": 0.0634,
        "meta_ra_of_asc_node": 354.5841,
        "meta_arg_of_pericenter": 274.9248,
        "meta_mean_anomaly": 128.6519,
        "meta_ephemeris_type": 0,
        "meta_classification_type": "U",
        "meta_norad_cat_id": 40875,
        "meta_element_set_no": 999,
        "meta_rev_at_epoch": 3784,
        "meta_bstar": 0,
        "meta_mean_motion_dot": -4.1e-07,
        "meta_mean_motion_ddot": 0,
        "tle_line1": "1 40875U 15039B   25352.88447457 -.00000041  00000+0  00000+0 0  9990",
        "tle_line2": "2 40875   0.0634 354.5841 0004299 274.9248 128.6519  1.00270031 37847"
      },
      "geometry": {
        "type": "Point",
        "coordinates": [
          -174.9803603512759,
          -0.018127069440724355
        ]
      }
    },
    {
      "type": "Feature",
      "properties": {
        "norad_id": 41310,
        "name": "EUTELSAT 9B",
        "group": "eutelsat",
        "lat": 0.029488059127351862,
        "lon": -157.99580918957255,
        "alt_km": 35780.17969083382,
        "timestamp": "2025-12-19T06:59:43.575342+00:00",
        "meta_object_name": "EUTELSAT 9B",
        "meta_object_id": "2016-005A",
        "meta_epoch": "2025-12-18T20:11:07.525248",
        "meta_mean_motion": 1.00272233,
        "meta_eccentricity": 0.0004465,
        "meta_inclination": 0.0591,
        "meta_ra_of_asc_node": 70.5014,
        "meta_arg_of_pericenter": 203.9652,
        "meta_mean_anomaly": 125.0024,
        "meta_ephemeris_type": 0,
        "meta_classification_type": "U",
        "meta_norad_cat_id": 41310,
        "meta_element_set_no": 999,
        "meta_rev_at_epoch": 3630,
        "meta_bstar": 0,
        "meta_mean_motion_dot": 8.7e-07,
        "meta_mean_motion_ddot": 0,
        "tle_line1": "1 41310U 16005A   25352.84105932  .00000087  00000+0  00000+0 0  9993",
        "tle_line2": "2 41310   0.0591  70.5014 0004465 203.9652 125.0024  1.00272233 36305"
      },
      "geometry": {
        "type": "Point",
        "coordinates": [
          -157.99580918957255,
          0.029488059127351862
        ]
      }
    },
    {
      "type": "Feature",
      "properties": {
        "norad_id": 41382,
        "name": "EUTELSAT 65 WEST A",
        "group": "eutelsat",
        "lat": 0.03537826008502527,
        "lon": 127.82555426385983,
        "alt_km": 35795.194150065436,
        "timestamp": "2025-12-19T06:59:43.575354+00:00",
        "meta_object_name": "EUTELSAT 65 WEST A",
        "meta_object_id": "2016-014A",
        "meta_epoch": "2025-12-18T19:50:02.045184",
        "meta_mean_motion": 1.00269647,
        "meta_eccentricity": 0.00023057,
        "meta_inclination": 0.0554,
        "meta_ra_of_asc_node": 328.4571,
        "meta_arg_of_pericenter": 309.5973,
        "meta_mean_anomaly": 41.9178,
        "meta_ephemeris_type": 0,
        "meta_classification_type": "U",
        "meta_norad_cat_id": 41382,
        "meta_element_set_no": 999,
        "meta_rev_at_epoch": 3572,
        "meta_bstar": 0,
        "meta_mean_motion_dot": -2.51e-06,
        "meta_mean_motion_ddot": 0,
        "tle_line1": "1 41382U 16014A   25352.82641256 -.00000251  00000+0  00000+0 0  9998",
        "tle_line2": "2 41382   0.0554 328.4571 0002305 309.5973  41.9178  1.00269647 35722"
      },
      "geometry": {
        "type": "Point",
        "coordinates": [
          127.82555426385983,
          0.03537826008502527
        ]
      }
    },
    {
      "type": "Feature",
      "properties": {
        "norad_id": 41589,
        "name": "EUTELSAT 117 WEST B",
        "group": "eutelsat",
        "lat": -0.012193258648564307,
        "lon": 76.07780006470797,
        "alt_km": 35787.46127953089,
        "timestamp": "2025-12-19T06:59:43.575366+00:00",
        "meta_object_name": "EUTELSAT 117 WEST B",
        "meta_object_id": "2016-038B",
        "meta_epoch": "2025-12-18T23:00:43.782048",
        "meta_mean_motion": 1.00271973,
        "meta_eccentricity": 3.963e-05,
        "meta_inclination": 0.0143,
        "meta_ra_of_asc_node": 155.6363,
        "meta_arg_of_pericenter": 131.3163,
        "meta_mean_anomaly": 29.0566,
        "meta_ephemeris_type": 0,
        "meta_classification_type": "U",
        "meta_norad_cat_id": 41589,
        "meta_element_set_no": 999,
        "meta_rev_at_epoch": 3485,
        "meta_bstar": 0,
        "meta_mean_motion_dot": 1.3e-07,
        "meta_mean_motion_ddot": 0,
        "tle_line1": "1 41589U 16038B   25352.95884007  .00000013  00000+0  00000+0 0  9995",
        "tle_line2": "2 41589   0.0143 155.6363 0000396 131.3163  29.0566  1.00271973 34850"
      },
      "geometry": {
        "type": "Point",
        "coordinates": [
          76.07780006470797,
          -0.012193258648564307
        ]
      }
    },
    {
      "type": "Feature",
      "properties": {
        "norad_id": 42741,
        "name": "EUTELSAT 172B",
        "group": "eutelsat",
        "lat": -0.014096619594852335,
        "lon": 5.055559631299844,
        "alt_km": 35785.64388568134,
        "timestamp": "2025-12-19T06:59:43.575377+00:00",
        "meta_object_name": "EUTELSAT 172B",
        "meta_object_id": "2017-029B",
        "meta_epoch": "2025-12-18T19:14:55.597632",
        "meta_mean_motion": 1.00272425,
        "meta_eccentricity": 2.252e-05,
        "meta_inclination": 0.0465,
        "meta_ra_of_asc_node": 142.7922,
        "meta_arg_of_pericenter": 297.5777,
        "meta_mean_anomaly": 108.0155,
        "meta_ephemeris_type": 0,
        "meta_classification_type": "U",
        "meta_norad_cat_id": 42741,
        "meta_element_set_no": 999,
        "meta_rev_at_epoch": 3192,
        "meta_bstar": 0,
        "meta_mean_motion_dot": 2e-07,
        "meta_mean_motion_ddot": 0,
        "tle_line1": "1 42741U 17029B   25352.80203238  .00000020  00000+0  00000+0 0  9990",
        "tle_line2": "2 42741   0.0465 142.7922 0000225 297.5777 108.0155  1.00272425 31923"
      },
      "geometry": {
        "type": "Point",
        "coordinates": [
          5.055559631299844,
          -0.014096619594852335
        ]
      }
    }
  ]
}